NORAD_CAT_ID,OBJECT_NAME,OBJECT_TYPE,EPOCH,MEAN_MOTION,ECCENTRICITY,INCLINATION,RA_OF_ASC_NODE,ARG_OF_PERICENTER,MEAN_ANOMALY,BSTAR,MEAN_MOTION_DOT,MEAN_MOTION_DDOT,TLE_LINE0,TLE_LINE1,TLE_LINE2,SEMIMAJOR_AXIS,PERIOD,APOGEE,PERIGEE,DECAYED
55648.0,STARLINK-5501,PAYLOAD,2024-07-28 11:41:25,14.98330662,0.0003521,69.9976,230.0813,268.5507,91.5249,6.9476e-06,-1e-07,0.0,0 STARLINK-5501,1 55648U 23021W   24210.48710285 -.00000010  00000-0  69476-5 0  9999,2 55648  69.9976 230.0813 0003521 268.5507  91.5249 14.98330662 80232,6950.191,96.107,574.503,569.609,0.0
55648.0,STARLINK-5501,PAYLOAD,2024-07-29 10:07:18,14.98330129,0.0003468,69.9978,227.7249,269.1107,90.9654,3.2036e-05,2.89e-06,0.0,0 STARLINK-5501,1 55648U 23021W   24211.42174304  .00000289  00000-0  32036-4 0  9998,2 55648  69.9978 227.7249 0003468 269.1107  90.9654 14.98330129 80672,6950.192,96.107,574.468,569.647,0.0
55648.0,STARLINK-5501,PAYLOAD,2024-07-30 05:20:55,14.98331142,0.0003481,69.9978,225.7048,268.8921,91.1839,5.8692e-05,6.07e-06,0.0,0 STARLINK-5501,1 55648U 23021W   24212.22286161  .00000607  00000-0  58692-4 0  9992,2 55648  69.9978 225.7048 0003481 268.8921  91.1839 14.98331142 80496,6950.189,96.107,574.474,569.635,0.0
55648.0,STARLINK-5501,PAYLOAD,2024-07-30 11:45:27,14.98332402,0.0003478,69.9978,225.0314,268.7459,91.3302,6.9703e-05,7.39e-06,0.0,0 STARLINK-5501,1 55648U 23021W   24212.48990048  .00000739  00000-0  69703-4 0  9997,2 55648  69.9978 225.0314 0003478 268.7459  91.3302 14.98332402 80831,6950.185,96.107,574.468,569.633,0.0
55648.0,STARLINK-5501,PAYLOAD,2024-07-30 18:09:59,14.983322,0.0003479,69.9979,224.358,268.6418,91.4342,6.6501e-05,7.01e-06,0.0,0 STARLINK-5501,1 55648U 23021W   24212.75694035  .00000701  00000-0  66501-4 0  9996,2 55648  69.9979 224.3580 0003479 268.6418  91.4342 14.98332200 80879,6950.186,96.107,574.469,569.633,0.0
55648.0,STARLINK-5501,PAYLOAD,2024-07-31 10:11:20,14.98332477,0.0003461,69.9979,222.6748,268.6858,91.3904,5.7142e-05,5.89e-06,0.0,0 STARLINK-5501,1 55648U 23021W   24213.42453999  .00000589  00000-0  57142-4 0  9998,2 55648  69.9979 222.6748 0003461 268.6858  91.3904 14.98332477 80975,6950.185,96.107,574.456,569.645,0.0
55648.0,STARLINK-5501,PAYLOAD,2024-08-01 05:24:57,14.98330984,0.0003429,69.998,220.655,268.3475,91.7291,1.7779e-05,1.19e-06,0.0,0 STARLINK-5501,1 55648U 23021W   24214.22566131  .00000119  00000-0  17779-4 0  9991,2 55648  69.9980 220.6550 0003429 268.3475  91.7291 14.98330984 80796,6950.19,96.107,574.438,569.672,0.0
55648.0,STARLINK-5501,PAYLOAD,2024-08-01 10:13:21,14.9833121,0.000343,69.998,220.15,268.4257,91.6509,1.9042e-05,1.34e-06,0.0,0 STARLINK-5501,1 55648U 23021W   24214.42594097  .00000134  00000-0  19042-4 0  9997,2 55648  69.9980 220.1500 0003430 268.4257  91.6509 14.98331210 81129,6950.189,96.107,574.438,569.67,0.0
55648.0,STARLINK-5501,PAYLOAD,2024-08-01 23:02:25,14.98332366,0.0003463,69.9978,218.8029,268.5506,91.5256,2.7618e-05,2.36e-06,0.0,0 STARLINK-5501,1 55648U 23021W   24214.96001929  .00000236  00000-0  27618-4 0  9994,2 55648  69.9978 218.8029 0003463 268.5506  91.5256 14.98332366 81200,6950.186,96.107,574.457,569.644,0.0
55648.0,STARLINK-5501,PAYLOAD,2024-08-02 05:26:57,14.98332534,0.0003467,69.9979,218.1295,268.4217,91.6544,3.5736e-05,3.33e-06,0.0,0 STARLINK-5501,1 55648U 23021W   24215.22705886  .00000333  00000-0  35736-4 0  9995,2 55648  69.9979 218.1295 0003467 268.4217  91.6544 14.98332534 80949,6950.185,96.107,574.46,569.64,0.0
55648.0,STARLINK-5501,PAYLOAD,2024-08-02 10:15:21,14.9833395,0.000347,69.998,217.6247,268.8708,91.2054,5.2514e-05,5.34e-06,0.0,0 STARLINK-5501,1 55648U 23021W   24215.42733727  .00000534  00000-0  52514-4 0  9998,2 55648  69.9980 217.6247 0003470 268.8708  91.2054 14.98333950 81277,6950.181,96.107,574.457,569.634,0.0
55648.0,STARLINK-5501,PAYLOAD,2024-08-03 05:28:58,14.98330098,0.0003418,69.9983,215.6047,269.2287,90.8481,3.674e-05,3.45e-06,0.0,0 STARLINK-5501,1 55648U 23021W   24216.22845977  .00000345  00000-0  36740-4 0  9991,2 55648  69.9983 215.6047 0003418 269.2287  90.8481 14.98330098 81094,6950.193,96.107,574.433,569.682,0.0
55648.0,STARLINK-5501,PAYLOAD,2024-08-03 10:17:23,14.98330907,0.0003438,69.9983,215.0998,269.276,90.8005,4.0443e-05,3.9e-06,0.0,0 STARLINK-5501,1 55648U 23021W   24216.42873910  .00000390  00000-0  40443-4 0  9996,2 55648  69.9983 215.0998 0003438 269.2760  90.8005 14.98330907 81429,6950.19,96.107,574.445,569.666,0.0
55648.0,STARLINK-5501,PAYLOAD,2024-08-03 23:06:27,14.9832904,0.0003396,69.9986,213.7533,269.3562,90.7208,-4.6579e-06,-1.49e-06,0.0,0 STARLINK-5501,1 55648U 23021W   24216.96282159 -.00000149  00000-0 -46579-5 0  9995,2 55648  69.9986 213.7533 0003396 269.3562  90.7208 14.98329040 81505,6950.196,96.107,574.421,569.701,0.0
55648.0,STARLINK-5501,PAYLOAD,2024-08-04 10:19:24,14.98330595,0.0003363,69.9987,212.5751,269.0349,91.0425,1.7887e-05,1.2e-06,0.0,0 STARLINK-5501,1 55648U 23021W   24217.43014017  .00000120  00000-0  17887-4 0  9990,2 55648  69.9987 212.5751 0003363 269.0349  91.0425 14.98330595 81275,6950.191,96.107,574.393,569.719,0.0
55648.0,STARLINK-5501,PAYLOAD,2024-08-04 16:43:56,14.98331469,0.0003363,69.9988,211.9019,269.1736,90.9038,2.9116e-05,2.54e-06,0.0,0 STARLINK-5501,1 55648U 23021W   24217.69717930  .00000254  00000-0  29116-4 0  9998,2 55648  69.9988 211.9019 0003363 269.1736  90.9038 14.98331469 81614,6950.188,96.107,574.391,569.716,0.0
55648.0,STARLINK-5501,PAYLOAD,2024-08-05 16:45:57,14.98330328,0.0003297,69.9989,209.3771,268.6914,91.3867,4.9395e-05,4.96e-06,0.0,0 STARLINK-5501,1 55648U 23021W   24218.69857814  .00000496  00000-0  49395-4 0  9994,2 55648  69.9989 209.3771 0003297 268.6914  91.3867 14.98330328 81460,6950.192,96.107,574.348,569.765,0.0
55648.0,STARLINK-5501,PAYLOAD,2024-08-06 08:47:18,14.98324262,0.0003258,69.9989,207.6939,267.2462,92.8324,-6.3046e-06,-1.68e-06,0.0,0 STARLINK-5501,1 55648U 23021W   24219.36618441 -.00000168  00000-0 -63046-5 0  9998,2 55648  69.9989 207.6939 0003258 267.2462  92.8324 14.98324262 81562,6950.211,96.107,574.34,569.811,0.0
55648.0,STARLINK-5501,PAYLOAD,2024-08-06 16:47:58,14.98327018,0.0003259,69.9989,206.8522,266.8329,93.2457,7.796e-05,8.37e-06,0.0,0 STARLINK-5501,1 55648U 23021W   24219.69998122  .00000837  00000-0  77960-4 0  9991,2 55648  69.9989 206.8522 0003259 266.8329  93.2457 14.98327018 81912,6950.202,96.107,574.332,569.802,0.0
55648.0,STARLINK-5501,PAYLOAD,2024-08-07 04:00:54,14.98334744,0.0003295,69.9989,205.674,267.1037,92.9745,4.0687e-05,3.93e-06,0.0,0 STARLINK-5501,1 55648U 23021W   24220.16729629  .00000393  00000-0  40687-4 0  9992,2 55648  69.9989 205.6740 0003295 267.1037  92.9745 14.98334744 81685,6950.178,96.107,574.333,569.753,0.0
55648.0,STARLINK-5501,PAYLOAD,2024-08-07 05:37:02,14.98334519,0.00033,69.9989,205.5056,266.8735,93.2047,3.0503e-05,2.71e-06,0.0,0 STARLINK-5501,1 55648U 23021W   24220.23405653  .00000271  00000-0  30503-4 0  9999,2 55648  69.9989 205.5056 0003300 266.8735  93.2047 14.98334519 81995,6950.179,96.107,574.337,569.75,0.0
55648.0,STARLINK-5501,PAYLOAD,2024-08-08 08:51:19,14.9833346,0.0003347,69.9989,202.6443,266.4588,93.6188,0.00012451,1.393e-05,0.0,0 STARLINK-5501,1 55648U 23021W   24221.36897416  .00001393  00000-0  12451-3 0  9993,2 55648  69.9989 202.6443 0003347 266.4588  93.6188 14.98333460 82160,6950.182,96.107,574.373,569.721,0.0
55648.0,STARLINK-5501,PAYLOAD,2024-08-09 08:53:20,14.98336906,0.0003166,69.9991,200.1195,264.8738,95.206,3.5698e-05,3.33e-06,0.0,0 STARLINK-5501,1 55648U 23021W   24222.37037266  .00000333  00000-0  35698-4 0  9996,2 55648  69.9991 200.1195 0003166 264.8738  95.2060 14.98336906 82017,6950.172,96.107,574.237,569.836,0.0
55648.0,STARLINK-5501,PAYLOAD,2024-08-09 21:42:25,14.98331426,0.0002766,70.0002,198.7738,253.6859,106.3996,3.3379e-05,3.05e-06,0.0,0 STARLINK-5501,1 55648U 23021W   24222.90445623  .00000305  00000-0  33379-4 0  9998,2 55648  70.0002 198.7738 0002766 253.6859 106.3996 14.98331426 82398,6950.188,96.107,573.976,570.131,0.0
55648.0,STARLINK-5501,PAYLOAD,2024-08-10 04:06:57,14.98330044,0.0002729,69.9999,198.1001,256.2239,103.8616,1.9329e-05,1.38e-06,0.0,0 STARLINK-5501,1 55648U 23021W   24223.17149696  .00000138  00000-0  19329-4 0  9992,2 55648  69.9999 198.1001 0002729 256.2239 103.8616 14.98330044 82135,6950.193,96.107,573.954,570.161,0.0
55648.0,STARLINK-5501,PAYLOAD,2024-08-10 08:55:21,14.98328494,0.0002934,70.0,197.5958,263.8455,96.237,0.00016803,1.912e-05,0.0,0 STARLINK-5501,1 55648U 23021W   24223.37177435  .00001912  00000-0  16803-3 0  9990,2 55648  70.0000 197.5958 0002934 263.8455  96.2370 14.98328494 82461,6950.198,96.107,574.102,570.023,0.0
55648.0,STARLINK-5501,PAYLOAD,2024-08-11 07:21:13,14.98339704,0.000322,69.9993,195.2376,268.2388,91.8403,0.00013166,1.479e-05,0.0,0 STARLINK-5501,1 55648U 23021W   24224.30640699  .00001479  00000-0  13166-3 0  9998,2 55648  69.9993 195.2376 0003220 268.2388  91.8403 14.98339704 82308,6950.163,96.106,574.266,569.79,0.0
55648.0,STARLINK-5501,PAYLOAD,2024-08-11 15:21:54,14.9833513,0.0002971,69.9998,194.3982,270.0444,90.0374,5.9279e-05,6.14e-06,0.0,0 STARLINK-5501,1 55648U 23021W   24224.64021219  .00000614  00000-0  59279-4 0  9992,2 55648  69.9998 194.3982 0002971 270.0444  90.0374 14.98335130 82354,6950.177,96.107,574.107,569.977,0.0
55648.0,STARLINK-5501,PAYLOAD,2024-08-11 21:46:26,14.98332092,0.0002623,70.0003,193.7238,270.9783,89.1075,8.6573e-05,9.4e-06,0.0,0 STARLINK-5501,1 55648U 23021W   24224.90725395  .00000940  00000-0  86573-4 0  9996,2 55648  70.0003 193.7238 0002623 270.9783  89.1075 14.98332092 82698,6950.186,96.107,573.874,570.228,0.0
55648.0,STARLINK-5501,PAYLOAD,2024-08-12 08:59:22,14.9834407,0.0003033,69.9995,192.5444,270.4378,89.6434,0.00017913,2.046e-05,0.0,0 STARLINK-5501,1 55648U 23021W   24225.37456132  .00002046  00000-0  17913-3 0  9998,2 55648  69.9995 192.5444 0003033 270.4378  89.6434 14.98344070 82460,6950.149,96.106,574.122,569.906,0.0
